$$SOE
2461295.500000000, A.D. 2026-Sep-12 00:00:00.0000, -2.667479173614000E+08, 2.771348592109872E+08, 1.773231885116093E+08,
2461302.500000000, A.D. 2026-Sep-19 00:00:00.0000, -2.747398405074579E+08, 2.689858336767455E+08, 1.790356360536149E+08,
2461309.500000000, A.D. 2026-Sep-26 00:00:00.0000, -2.825570693980269E+08, 2.606657993338602E+08, 1.806340916019393E+08,
2461316.500000000, A.D. 2026-Oct-03 00:00:00.0000, -2.901954122583424E+08, 2.521807691218901E+08, 1.821180397923799E+08,
2461323.500000000, A.D. 2026-Oct-10 00:00:00.0000, -2.976508832687404E+08, 2.435368572290797E+08, 1.834870779401760E+08,
2461330.500000000, A.D. 2026-Oct-17 00:00:00.0000, -3.049197056834677E+08, 2.347402679758565E+08, 1.847409149224220E+08,
2461337.500000000, A.D. 2026-Oct-24 00:00:00.0000, -3.119983143383435E+08, 2.257972846143974E+08, 1.858793697832386E+08,
2461344.500000000, A.D. 2026-Oct-31 00:00:00.0000, -3.188833574560316E+08, 2.167142580230228E+08, 1.869023700606732E+08,
2461351.500000000, A.D. 2026-Nov-07 00:00:00.0000, -3.255716974206207E+08, 2.074975954129231E+08, 1.878099498247440E+08,
2461358.500000000, A.D. 2026-Nov-14 00:00:00.0000, -3.320604103346932E+08, 1.981537499755984E+08, 1.886022474960539E+08,
2461365.500000000, A.D. 2026-Nov-21 00:00:00.0000, -3.383467861884919E+08, 1.886892121914683E+08, 1.892795036836478E+08,
2461372.500000000, A.D. 2026-Nov-28 00:00:00.0000, -3.444283306600855E+08, 1.791104998290864E+08, 1.898420589062310E+08,
2461379.500000000, A.D. 2026-Dec-05 00:00:00.0000, -3.503027649474221E+08, 1.694241460135051E+08, 1.902903508281439E+08,
2461386.500000000, A.D. 2026-Dec-12 00:00:00.0000, -3.559680234898809E+08, 1.596366885038941E+08, 1.906249112650057E+08,
2461393.500000000, A.D. 2026-Dec-19 00:00:00.0000, -3.614222514939505E+08, 1.497546602134747E+08, 1.908463631510556E+08,
2461400.500000000, A.D. 2026-Dec-26 00:00:00.0000, -3.666638024339414E+08, 1.397845801295712E+08, 1.909554174294832E+08,
2461407.500000000, A.D. 2027-Jan-02 00:00:00.0000, -3.716912352802927E+08, 1.297329444657440E+08, 1.909528698425724E+08,
2461414.500000000, A.D. 2027-Jan-09 00:00:00.0000, -3.765033113676632E+08, 1.196062180854146E+08, 1.908395976290723E+08,
2461421.500000000, A.D. 2027-Jan-16 00:00:00.0000, -3.810989908975247E+08, 1.094108262215399E+08, 1.906165561417956E+08,
2461428.500000000, A.D. 2027-Jan-23 00:00:00.0000, -3.854774290600897E+08, 9.915314646484932E+07, 1.902847753926882E+08,
2461435.500000000, A.D. 2027-Jan-30 00:00:00.0000, -3.896379716193913E+08, 8.883950098142424E+07, 1.898453565186060E+08,
2461442.500000000, A.D. 2027-Feb-06 00:00:00.0000, -3.935801495689076E+08, 7.847614930516098E+07, 1.892994681711223E+08,
2461449.500000000, A.D. 2027-Feb-13 00:00:00.0000, -3.973036733504471E+08, 6.806928292791745E+07, 1.886483429869772E+08,
2461456.500000000, A.D. 2027-Feb-20 00:00:00.0000, -4.008084290329208E+08, 5.762502089776683E+07, 1.878932743063689E+08,
2461463.500000000, A.D. 2027-Feb-27 00:00:00.0000, -4.040944750871174E+08, 4.714940321286903E+07, 1.870356127631698E+08,
2461470.500000000, A.D. 2027-Mar-06 00:00:00.0000, -4.071620367665365E+08, 3.664838393370748E+07, 1.860767626389922E+08,
2461477.500000000, A.D. 2027-Mar-13 00:00:00.0000, -4.100114997200700E+08, 2.612782605913039E+07, 1.850181783041718E+08,
2461484.500000000, A.D. 2027-Mar-20 00:00:00.0000, -4.126434039920604E+08, 1.559349732438362E+07, 1.838613607901226E+08,
2461491.500000000, A.D. 2027-Mar-27 00:00:00.0000, -4.150584382332588E+08, 5.051066364136867E+06, 1.826078544387984E+08,
2461498.500000000, A.D. 2027-Apr-03 00:00:00.0000, -4.172574339434387E+08, -5.493900816479281E+06, 1.812592436147637E+08,
2461505.500000000, A.D. 2027-Apr-10 00:00:00.0000, -4.192413597064925E+08, -1.603594405064586E+07, 1.798171494832148E+08,
2461512.500000000, A.D. 2027-Apr-17 00:00:00.0000, -4.210113154168134E+08, -2.656971192494240E+07, 1.782832268572715E+08,
2461519.500000000, A.D. 2027-Apr-24 00:00:00.0000, -4.225685264374545E+08, -3.708996447595093E+07, 1.766591611081828E+08,
2461526.500000000, A.D. 2027-May-01 00:00:00.0000, -4.239143374088042E+08, -4.759157565414890E+07, 1.749466651185431E+08,
2461533.500000000, A.D. 2027-May-08 00:00:00.0000, -4.250502054171659E+08, -5.806953482073890E+07, 1.731474763158816E+08,
2461540.500000000, A.D. 2027-May-15 00:00:00.0000, -4.259776940353553E+08, -6.851894633878018E+07, 1.712633540053267E+08,
2461547.500000000, A.D. 2027-May-22 00:00:00.0000, -4.266984698138763E+08, -7.893502986584544E+07, 1.692960769363061E+08,
2461554.500000000, A.D. 2027-May-29 00:00:00.0000, -4.272142978808792E+08, -8.931312283147521E+07, 1.672474406787058E+08,
2461561.500000000, A.D. 2027-Jun-05 00:00:00.0000, -4.275270357772689E+08, -9.964868198176810E+07, 1.651192549847256E+08,
2461568.500000000, A.D. 2027-Jun-12 00:00:00.0000, -4.276386275432838E+08, -1.099372835745400E+08, 1.629133413558959E+08,
2461575.500000000, A.D. 2027-Jun-19 00:00:00.0000, -4.275510983961674E+08, -1.201746231763689E+08, 1.606315307695480E+08,
2461582.500000000, A.D. 2027-Jun-26 00:00:00.0000, -4.272665497278646E+08, -1.303565153386972E+08, 1.582756615183568E+08,
2461589.500000000, A.D. 2027-Jul-03 00:00:00.0000, -4.267871542977604E+08, -1.404788931597412E+08, 1.558475771516298E+08,
2461596.500000000, A.D. 2027-Jul-10 00:00:00.0000, -4.261151515893558E+08, -1.505378077381480E+08, 1.533491245151537E+08,
2461603.500000000, A.D. 2027-Jul-17 00:00:00.0000, -4.252528432991283E+08, -1.605294275717077E+08, 1.507821518821217E+08,
2461610.500000000, A.D. 2027-Jul-24 00:00:00.0000, -4.242025888048386E+08, -1.704500379780745E+08, 1.481485071543917E+08,
2461617.500000000, A.D. 2027-Jul-31 00:00:00.0000, -4.229668002046546E+08, -1.802960403156738E+08, 1.454500361140180E+08,
2461624.500000000, A.D. 2027-Aug-07 00:00:00.0000, -4.215479371296015E+08, -1.900639498662570E+08, 1.426885808356228E+08,
2461631.500000000, A.D. 2027-Aug-14 00:00:00.0000, -4.199485036313866E+08, -1.997503926455138E+08, 1.398659784476963E+08,
2461638.500000000, A.D. 2027-Aug-21 00:00:00.0000, -4.181710465285816E+08, -2.093521045191491E+08, 1.369840599092466E+08,
2461645.500000000, A.D. 2027-Aug-28 00:00:00.0000, -4.162181517815252E+08, -2.188659314331780E+08, 1.340446485836070E+08,
2461652.500000000, A.D. 2027-Sep-04 00:00:00.0000, -4.140924400769088E+08, -2.282888282663704E+08, 1.310495589194289E+08,
2461659.500000000, A.D. 2027-Sep-11 00:00:00.0000, -4.117965630157381E+08, -2.376178569760524E+08, 1.280005953092892E+08,
2461666.500000000, A.D. 2027-Sep-18 00:00:00.0000, -4.093331997696441E+08, -2.468501846972721E+08, 1.248995510571023E+08,
2461673.500000000, A.D. 2027-Sep-25 00:00:00.0000, -4.067050539747055E+08, -2.559830818819849E+08, 1.217482074236052E+08,
2461680.500000000, A.D. 2027-Oct-02 00:00:00.0000, -4.039148507850209E+08, -2.650139204587842E+08, 1.185483327417022E+08,
2461687.500000000, A.D. 2027-Oct-09 00:00:00.0000, -4.009653340599456E+08, -2.739401720254425E+08, 1.153016815955572E+08,
2461694.500000000, A.D. 2027-Oct-16 00:00:00.0000, -3.978592636179031E+08, -2.827594061371017E+08, 1.120099940497621E+08,
2461701.500000000, A.D. 2027-Oct-23 00:00:00.0000, -3.945994122934065E+08, -2.914692887038186E+08, 1.086749949013900E+08,
2461708.500000000, A.D. 2027-Oct-30 00:00:00.0000, -3.911885624196633E+08, -3.000675798945461E+08, 1.052983929678737E+08,
2461715.500000000, A.D. 2027-Nov-06 00:00:00.0000, -3.876295028972580E+08, -3.085521304257568E+08, 1.018818806069540E+08,
2461722.500000000, A.D. 2027-Nov-13 00:00:00.0000, -3.839250288310394E+08, -3.169208783167502E+08, 9.842713347828762E+07,
2461729.500000000, A.D. 2027-Nov-20 00:00:00.0000, -3.800779408303876E+08, -3.251718483033456E+08, 9.493581009932166E+07,
2461736.500000000, A.D. 2027-Nov-27 00:00:00.0000, -3.760910423524364E+08, -3.333031509502802E+08, 9.140955128677109E+07,
2461743.500000000, A.D. 2027-Dec-04 00:00:00.0000, -3.719671371078768E+08, -3.413129805519722E+08, 8.784997974103995E+07,
2461750.500000000, A.D. 2027-Dec-11 00:00:00.0000, -3.677090270752145E+08, -3.491996127890959E+08, 8.425869974228391E+07,
2461757.500000000, A.D. 2027-Dec-18 00:00:00.0000, -3.633195108438877E+08, -3.569614024838872E+08, 8.063729690244465E+07,
2461764.500000000, A.D. 2027-Dec-25 00:00:00.0000, -3.588013821301153E+08, -3.645967814601473E+08, 7.698733795672533E+07,
2461771.500000000, A.D. 2028-Jan-01 00:00:00.0000, -3.541574284202769E+08, -3.721042564967709E+08, 7.331037058969060E+07,
$$EOE